[Satellite]
VERSION=1.1
NAME=OAO 3 (COPERNICUS)
NICKNAME=OAO 3 (COPERNICUS)
TLE1=1 06153U 72065A   18021.11277295  .00000034  00000-0  11891-4 0  9992
TLE2=2 06153  35.0063 253.2640 0006202  42.1172  91.7431 14.57864872412704
